KAITUO 1A               
1 40904U 15049F   24044.11435977  .00035459  00000+0  97308-3 0  9992
2 40904  97.4943  57.5391 0010737  52.9035 307.3189 15.37121234465170
2015-049G               
1 40905U 15049G   24044.09171805  .00013406  00000+0  53209-3 0  9997
2 40905  97.5269  52.1597 0014253  66.1548 294.1181 15.25382372464628
XW-2C                   
1 40906U 15049H   24043.98858420  .00027333  00000+0  80363-3 0  9995
2 40906  97.4887  58.2326 0010978  41.1380 319.0689 15.35014765465224
XW-2D                   
1 40907U 15049J   24044.07601426  .00035944  00000+0  92026-3 0  9995
2 40907  97.4845  59.8314 0009323  34.4886 325.6962 15.39274760465393
LILACSAT-2              
1 40908U 15049K   24044.12518462  .00010453  00000+0  43859-3 0  9997
2 40908  97.5283  52.1736 0014888  72.1231 288.1628 15.23569339464438
XW-2E                   
1 40909U 15049L   24044.01444252  .00208155  00000+0  14911-2 0  9995
2 40909  97.4258  71.0131 0001642  10.0280 350.1016 15.73082925466460
XW-2F                   
1 40910U 15049M   24044.02894222  .00199902  00000+0  15515-2 0  9994
2 40910  97.4361  70.2425 0002340   8.4629 351.6673 15.71197129466183
XW-2B                   
1 40911U 15049N   24044.05534427  .00035858  00000+0  93136-3 0  9991
2 40911  97.4821  60.0605 0009461  35.7244 324.4632 15.38831955465265
GSAT0205 (PRN E24)      
1 40889U 15045A   24042.82272837  .00000058  00000+0  00000+0 0  9996
2 40889  55.2787 245.2600 0006534  39.7431 320.3320  1.70473278 52413
GSAT0206 (PRN E30)      
1 40890U 15045B   24043.04336199  .00000057  00000+0  00000+0 0  9994
2 40890  55.2780 245.2494 0004351  41.1871 318.8713  1.70473332 52441
INTELSAT 34 (IS-34)     
1 40874U 15039A   24043.56924350 -.00000291  00000+0  00000+0 0  9999
2 40874   0.0353 323.8979 0000671 245.6160  82.0111  1.00270180 31045
EUTELSAT 8 WEST B       
1 40875U 15039B   24043.87686589 -.00000071  00000+0  00000+0 0  9999
2 40875   0.0658   1.2164 0004074 327.4319 121.4114  1.00271627 31074
GSAT-6                  
1 40880U 15041A   24043.87966082 -.00000166  00000+0  00000+0 0  9992
2 40880   0.1151 268.8888 0002395  37.0077 235.6966  1.00271824 31029
INMARSAT 5-F3           
1 40882U 15042A   24043.84257897  .00000044  00000+0  00000+0 0  9993
2 40882   0.0145  97.3004 0000125  49.6575 118.2970  1.00271179 30987
MUOS-4                  
1 40887U 15044A   24043.89340021 -.00000098  00000+0  00000+0 0  9997
2 40887   2.9476  28.9648 0056704 356.1993 153.8710  1.00270772 30983
TJS-1                   
1 40892U 15046A   24043.90921466 -.00000162  00000+0  00000+0 0  9997
2 40892   0.0768 106.1524 0002960 250.3422 268.2272  1.00272964 30980
EXPRESS-AM8             
1 40895U 15048A   24043.87564758 -.00000117  00000+0  00000+0 0  9995
2 40895   0.0166 128.2950 0000514  87.1585 228.1907  1.00271152 30766
YAOGAN-27               
1 40878U 15040A   24044.15682079 -.00000008  00000+0  90520-4 0  9997
2 40878 100.0853  58.8103 0008643  31.7306 328.4327 13.16008972406705
GAOFEN-9 01             
1 40894U 15047A   24044.11245512  .00002057  00000+0  28161-3 0  9991
2 40894  97.7487 103.4103 0030601  57.1342 303.2809 14.79232393453609
