OBJECT_NAME,OBJECT_ID,EPOCH,MEAN_MOTION,ECCENTRICITY,INCLINATION,RA_OF_ASC_NODE,ARG_OF_PERICENTER,MEAN_ANOMALY,EPHEMERIS_TYPE,CLASSIFICATION_TYPE,NORAD_CAT_ID,ELEMENT_SET_NO,REV_AT_EPOCH,BSTAR,MEAN_MOTION_DOT,MEAN_MOTION_DDOT
INTELSAT 34 (IS-34),2015-039A,2024-02-12T13:39:42.638400,1.00270180,.0000671,0.0353,323.8979,245.6160,82.0111,0,U,40874,999,3104,0,-.291E-5,0
EUTELSAT 8 WEST B,2015-039B,2024-02-12T21:02:41.212896,1.00271627,.0004074,0.0658,1.2164,327.4319,121.4114,0,U,40875,999,3107,0,-.71E-6,0
YAOGAN-27,2015-040A,2024-02-13T03:45:49.316256,13.16008972,.0008643,100.0853,58.8103,31.7306,328.4327,0,U,40878,999,40670,.9052E-4,-.8E-7,0
GSAT-6,2015-041A,2024-02-12T21:06:42.694848,1.00271824,.0002395,0.1151,268.8888,37.0077,235.6966,0,U,40880,999,3102,0,-.166E-5,0
INMARSAT 5-F3,2015-042A,2024-02-12T20:13:18.823008,1.00271179,.0000125,0.0145,97.3004,49.6575,118.2970,0,U,40882,999,3098,0,.44E-6,0
MUOS-4,2015-044A,2024-02-12T21:26:29.778144,1.00270772,.0056704,2.9476,28.9648,356.1993,153.8710,0,U,40887,999,3098,0,-.98E-6,0
GSAT0205 (GALILEO 9),2015-045A,2024-02-11T19:44:43.731168,1.70473278,.0006534,55.2787,245.2600,39.7431,320.3320,0,U,40889,999,5241,0,.58E-6,0
GSAT0206 (GALILEO 10),2015-045B,2024-02-12T01:02:26.475936,1.70473332,.0004351,55.2780,245.2494,41.1871,318.8713,0,U,40890,999,5244,0,.57E-6,0
TJS-1,2015-046A,2024-02-12T21:49:16.146624,1.00272964,.000296,0.0768,106.1524,250.3422,268.2272,0,U,40892,999,3098,0,-.162E-5,0
GAOFEN-9 01,2015-047A,2024-02-13T02:41:56.122368,14.79232393,.0030601,97.7487,103.4103,57.1342,303.2809,0,U,40894,999,45360,.28161E-3,.2057E-4,0
EXPRESS-AM8,2015-048A,2024-02-12T21:00:55.950912,1.00271152,.0000514,0.0166,128.2950,87.1585,228.1907,0,U,40895,999,3076,0,-.117E-5,0
KAITUO 1A,2015-049F,2024-02-13T02:44:40.684128,15.37121234,.0010737,97.4943,57.5391,52.9035,307.3189,0,U,40904,999,46517,.97308E-3,.35459E-3,0
OBJECT G,2015-049G,2024-02-13T02:12:04.439520,15.25382372,.0014253,97.5269,52.1597,66.1548,294.1181,0,U,40905,999,46462,.53209E-3,.13406E-3,0
XW-2C,2015-049H,2024-02-12T23:43:33.674880,15.35014765,.0010978,97.4887,58.2326,41.1380,319.0689,0,U,40906,999,46522,.80363E-3,.27333E-3,0
XW-2D,2015-049J,2024-02-13T01:49:27.632064,15.39274760,.0009323,97.4845,59.8314,34.4886,325.6962,0,U,40907,999,46539,.92026E-3,.35944E-3,0
LILACSAT-2,2015-049K,2024-02-13T03:00:15.951168,15.23569339,.0014888,97.5283,52.1736,72.1231,288.1628,0,U,40908,999,46443,.43859E-3,.10453E-3,0
XW-2E,2015-049L,2024-02-13T00:20:47.833728,15.73082925,.0001642,97.4258,71.0131,10.0280,350.1016,0,U,40909,999,46646,.14911E-2,.208155E-2,0
XW-2F,2015-049M,2024-02-13T00:41:40.607808,15.71197129,.000234,97.4361,70.2425,8.4629,351.6673,0,U,40910,999,46618,.15515E-2,.199902E-2,0
XW-2B,2015-049N,2024-02-13T01:19:41.744928,15.38831955,.0009461,97.4821,60.0605,35.7244,324.4632,0,U,40911,999,46526,.93136E-3,.35858E-3,0
